[{"OBJECT_NAME":"ONEWEB-0426","OBJECT_ID":"2021-132AF","EPOCH":"2026-03-09T20:09:20.587104","MEAN_MOTION":13.18689069,"ECCENTRICITY":0.00012833,"INCLINATION":87.9251,"RA_OF_ASC_NODE":355.1757,"ARG_OF_PERICENTER":59.3832,"MEAN_ANOMALY":300.7427,"EPHEMERIS_TYPE":0,"CLASSIFICATION_TYPE":"U","NORAD_CAT_ID":50498,"ELEMENT_SET_NO":999,"REV_AT_EPOCH":20849,"BSTAR":-0.0020859179,"MEAN_MOTION_DOT":-8.09e-6,"MEAN_MOTION_DDOT":0},{"OBJECT_NAME":"FENGYUN 1C DEB","OBJECT_ID":"1999-025CGT","EPOCH":"2026-03-05T04:25:54.279264","MEAN_MOTION":14.0465685,"ECCENTRICITY":0.0439164,"INCLINATION":98.3742,"RA_OF_ASC_NODE":47.1093,"ARG_OF_PERICENTER":284.9374,"MEAN_ANOMALY":70.3578,"EPHEMERIS_TYPE":0,"CLASSIFICATION_TYPE":"U","NORAD_CAT_ID":31805,"ELEMENT_SET_NO":999,"REV_AT_EPOCH":63520,"BSTAR":0.0023074638,"MEAN_MOTION_DOT":8.792e-5,"MEAN_MOTION_DDOT":0}]
